[{"OBJECT_NAME":"STARLINK-32818","OBJECT_ID":"2025-034H","EPOCH":"2026-03-09T22:28:11.563680","MEAN_MOTION":15.30196256,"ECCENTRICITY":0.00011625,"INCLINATION":53.1577,"RA_OF_ASC_NODE":257.0476,"ARG_OF_PERICENTER":88.3908,"MEAN_ANOMALY":271.7226,"EPHEMERIS_TYPE":0,"CLASSIFICATION_TYPE":"U","NORAD_CAT_ID":63036,"ELEMENT_SET_NO":999,"REV_AT_EPOCH":5912,"BSTAR":0.0012754495,"MEAN_MOTION_DOT":0.00037603,"MEAN_MOTION_DDOT":0},{"OBJECT_NAME":"CZ-6A DEB","OBJECT_ID":"2022-151NB","EPOCH":"2026-03-09T18:26:17.609568","MEAN_MOTION":15.22372787,"ECCENTRICITY":0.00267955,"INCLINATION":98.6489,"RA_OF_ASC_NODE":154.0342,"ARG_OF_PERICENTER":180.4296,"MEAN_ANOMALY":179.6918,"EPHEMERIS_TYPE":0,"CLASSIFICATION_TYPE":"U","NORAD_CAT_ID":54601,"ELEMENT_SET_NO":999,"REV_AT_EPOCH":17694,"BSTAR":0.011449911,"MEAN_MOTION_DOT":0.00276508,"MEAN_MOTION_DDOT":0}]
